ONEWEB-0118             
1 47264U 20100G   24010.48196995  .00000167  00000+0  42812-3 0  9997
2 47264  87.9013 167.4404 0001342  75.0842 285.0435 13.12444525148152
ONEWEB-0119             
1 47265U 20100H   24010.43431765  .00000303  00000+0  80627-3 0  9998
2 47265  87.9016 167.4880 0001583  98.4420 261.6888 13.12442773148124
ONEWEB-0120             
1 47266U 20100J   24010.46371030 -.00000344  00000+0 -99019-3 0  9992
2 47266  87.9015 167.4722 0001485  79.0781 281.0515 13.12443381148157
ONEWEB-0121             
1 47267U 20100K   24010.44543858 -.00000077  00000+0 -24896-3 0  9994
2 47267  87.9011 167.4722 0001572 103.5801 256.5503 13.12443761148063
ONEWEB-0122             
1 47268U 20100L   24010.44053052  .00000067  00000+0  15064-3 0  9991
2 47268  87.9013 167.4774 0001573  94.9309 265.1999 13.12443579147971
ONEWEB-0123             
1 47269U 20100M   24010.43590638  .00000246  00000+0  64812-3 0  9991
2 47269  87.9015 167.4865 0001500  93.9813 266.1487 13.12443273148115
ONEWEB-0124             
1 47270U 20100N   24010.42478264  .00000485  00000+0  13138-2 0  9991
2 47270  87.9017 167.4843 0001701 107.7558 252.3756 13.12446196147996
ONEWEB-0125             
1 47271U 20100P   24010.47560741  .00000002  00000+0 -30868-4 0  9996
2 47271  87.9015 167.4317 0001106 104.7227 255.4024 13.12446053148063
